[{"OBJECT_NAME":"STARLINK-35993","OBJECT_ID":"2025-270V","EPOCH":"2026-03-09T00:42:29.978496","MEAN_MOTION":15.27598649,"ECCENTRICITY":0.00013521,"INCLINATION":43.0031,"RA_OF_ASC_NODE":60.0125,"ARG_OF_PERICENTER":241.7516,"MEAN_ANOMALY":118.3199,"EPHEMERIS_TYPE":0,"CLASSIFICATION_TYPE":"U","NORAD_CAT_ID":66607,"ELEMENT_SET_NO":999,"REV_AT_EPOCH":1750,"BSTAR":0.0010469499,"MEAN_MOTION_DOT":0.00028676,"MEAN_MOTION_DDOT":0},{"OBJECT_NAME":"CZ-6A DEB","OBJECT_ID":"2024-140NC","EPOCH":"2026-03-09T01:19:44.598720","MEAN_MOTION":14.85954551,"ECCENTRICITY":0.01874643,"INCLINATION":89.0262,"RA_OF_ASC_NODE":281.6645,"ARG_OF_PERICENTER":160.2054,"MEAN_ANOMALY":200.6578,"EPHEMERIS_TYPE":0,"CLASSIFICATION_TYPE":"U","NORAD_CAT_ID":61086,"ELEMENT_SET_NO":999,"REV_AT_EPOCH":8276,"BSTAR":0.00091551765,"MEAN_MOTION_DOT":0.00011041,"MEAN_MOTION_DDOT":0}]
